{
  "type": "FeatureCollection",
  "features": [
    {
      "type": "Feature",
      "properties": {
        "norad_id": 19071,
        "name": "OSCAR 32",
        "group": "nnss",
        "lat": -77.6373490975432,
        "lon": 18.234440406907417,
        "alt_km": 1265.4708805040682,
        "timestamp": "2025-12-20T14:38:02.238554+00:00",
        "meta_object_name": "OSCAR 32",
        "meta_object_id": "1988-033B",
        "meta_epoch": "2025-12-20T00:43:02.305056",
        "meta_mean_motion": 13.27955116,
        "meta_eccentricity": 0.01889142,
        "meta_inclination": 90.321,
        "meta_ra_of_asc_node": 16.7508,
        "meta_arg_of_pericenter": 146.5881,
        "meta_mean_anomaly": 243.8277,
        "meta_ephemeris_type": 0,
        "meta_classification_type": "U",
        "meta_norad_cat_id": 19071,
        "meta_element_set_no": 999,
        "meta_rev_at_epoch": 82362,
        "meta_bstar": 0.00013088103,
        "meta_mean_motion_dot": 7.5e-07,
        "meta_mean_motion_ddot": 0,
        "tle_line1": "1 19071U 88033B   25354.02988779  .00000075  00000+0  13088-3 0  9993",
        "tle_line2": "2 19071  90.3210  16.7508 0188914 146.5881 243.8277 13.27955116823620"
      },
      "geometry": {
        "type": "Point",
        "coordinates": [
          18.234440406907417,
          -77.6373490975432
        ]
      }
    },
    {
      "type": "Feature",
      "properties": {
        "norad_id": 19223,
        "name": "NOVA 2",
        "group": "nnss",
        "lat": -24.061881184487873,
        "lon": 78.25689141663916,
        "alt_km": 1157.6275368592733,
        "timestamp": "2025-12-20T14:38:02.238564+00:00",
        "meta_object_name": "NOVA 2",
        "meta_object_id": "1988-052A",
        "meta_epoch": "2025-12-20T05:57:01.334304",
        "meta_mean_motion": 13.22936572,
        "meta_eccentricity": 0.00299518,
        "meta_inclination": 89.9869,
        "meta_ra_of_asc_node": 78.2632,
        "meta_arg_of_pericenter": 356.1963,
        "meta_mean_anomaly": 57.785,
        "meta_ephemeris_type": 0,
        "meta_classification_type": "U",
        "meta_norad_cat_id": 19223,
        "meta_element_set_no": 999,
        "meta_rev_at_epoch": 81047,
        "meta_bstar": 8.6003898e-05,
        "meta_mean_motion_dot": 4.5e-07,
        "meta_mean_motion_ddot": 0,
        "tle_line1": "1 19223U 88052A   25354.24793211  .00000045  00000+0  86004-4 0  9998",
        "tle_line2": "2 19223  89.9869  78.2632 0029951 356.1963  57.7850 13.22936572810477"
      },
      "geometry": {
        "type": "Point",
        "coordinates": [
          78.25689141663916,
          -24.061881184487873
        ]
      }
    },
    {
      "type": "Feature",
      "properties": {
        "norad_id": 19419,
        "name": "OSCAR 25",
        "group": "nnss",
        "lat": -69.91235286286344,
        "lon": -159.82281255208042,
        "alt_km": 1043.447431620736,
        "timestamp": "2025-12-20T14:38:02.238574+00:00",
        "meta_object_name": "OSCAR 25",
        "meta_object_id": "1988-074A",
        "meta_epoch": "2025-12-20T02:58:00.786144",
        "meta_mean_motion": 13.42624651,
        "meta_eccentricity": 0.00948435,
        "meta_inclination": 90.0339,
        "meta_ra_of_asc_node": 20.2683,
        "meta_arg_of_pericenter": 224.454,
        "meta_mean_anomaly": 196.6413,
        "meta_ephemeris_type": 0,
        "meta_classification_type": "U",
        "meta_norad_cat_id": 19419,
        "meta_element_set_no": 999,
        "meta_rev_at_epoch": 82739,
        "meta_bstar": 0.00013431883,
        "meta_mean_motion_dot": 8.7e-07,
        "meta_mean_motion_ddot": 0,
        "tle_line1": "1 19419U 88074A   25354.12362021  .00000087  00000+0  13432-3 0  9997",
        "tle_line2": "2 19419  90.0339  20.2683 0094843 224.4540 196.6413 13.42624651827393"
      },
      "geometry": {
        "type": "Point",
        "coordinates": [
          -159.82281255208042,
          -69.91235286286344
        ]
      }
    },
    {
      "type": "Feature",
      "properties": {
        "norad_id": 19420,
        "name": "OSCAR 31",
        "group": "nnss",
        "lat": 48.93996246339769,
        "lon": -159.33822461460542,
        "alt_km": 1090.0556977745255,
        "timestamp": "2025-12-20T14:38:02.238584+00:00",
        "meta_object_name": "OSCAR 31",
        "meta_object_id": "1988-074B",
        "meta_epoch": "2025-12-20T01:35:37.066272",
        "meta_mean_motion": 13.4258585,
        "meta_eccentricity": 0.00932043,
        "meta_inclination": 90.0354,
        "meta_ra_of_asc_node": 20.6192,
        "meta_arg_of_pericenter": 218.7647,
        "meta_mean_anomaly": 168.678,
        "meta_ephemeris_type": 0,
        "meta_classification_type": "U",
        "meta_norad_cat_id": 19420,
        "meta_element_set_no": 999,
        "meta_rev_at_epoch": 82749,
        "meta_bstar": 0.00014636655,
        "meta_mean_motion_dot": 9.4e-07,
        "meta_mean_motion_ddot": 0,
        "tle_line1": "1 19420U 88074B   25354.06640123  .00000094  00000+0  14637-3 0  9990",
        "tle_line2": "2 19420  90.0354  20.6192 0093204 218.7647 168.6780 13.42585850827499"
      },
      "geometry": {
        "type": "Point",
        "coordinates": [
          -159.33822461460542,
          48.93996246339769
        ]
      }
    }
  ]
}